[{"OBJECT_NAME":"STARLINK-3447","OBJECT_ID":"2022-016Y","EPOCH":"2026-03-09T22:02:00.322656","MEAN_MOTION":15.08831091,"ECCENTRICITY":0.00011872,"INCLINATION":53.2185,"RA_OF_ASC_NODE":318.1844,"ARG_OF_PERICENTER":95.5867,"MEAN_ANOMALY":264.526,"EPHEMERIS_TYPE":0,"CLASSIFICATION_TYPE":"U","NORAD_CAT_ID":51736,"ELEMENT_SET_NO":999,"REV_AT_EPOCH":22359,"BSTAR":8.0531666e-5,"MEAN_MOTION_DOT":9.94e-6,"MEAN_MOTION_DDOT":0},{"OBJECT_NAME":"POSAT-2","OBJECT_ID":"2025-009DR","EPOCH":"2026-03-09T23:15:20.314368","MEAN_MOTION":15.10404492,"ECCENTRICITY":0.00077103,"INCLINATION":97.4906,"RA_OF_ASC_NODE":146.0095,"ARG_OF_PERICENTER":126.4226,"MEAN_ANOMALY":233.7715,"EPHEMERIS_TYPE":0,"CLASSIFICATION_TYPE":"U","NORAD_CAT_ID":63488,"ELEMENT_SET_NO":999,"REV_AT_EPOCH":5165,"BSTAR":0.0010942248,"MEAN_MOTION_DOT":0.00017957,"MEAN_MOTION_DDOT":0}]
